[ {"CCSDS_OMM_VERS": "3.0", "COMMENT": "GENERATED VIA SPACE-TRACK.ORG API", "CREATION_DATE": "2020-03-01T14:26:14", "ORIGINATOR": "18 SPCS", "OBJECT_NAME": "OPS-SAT", "OBJECT_ID": "2019-092F", "CENTER_NAME": "EARTH", "REF_FRAME": "TEME", "TIME_SYSTEM": "UTC", "MEAN_ELEMENT_THEORY": "SGP4", "EPOCH": "2020-03-01T09:46:49.530144", "MEAN_MOTION": "15.15281952", "ECCENTRICITY": "0.00145930", "INCLINATION": "97.4641", "RA_OF_ASC_NODE": "246.5356", "ARG_OF_PERICENTER": "17.3525", "MEAN_ANOMALY": "342.8251", "EPHEMERIS_TYPE": "0", "CLASSIFICATION_TYPE": "U", "NORAD_CAT_ID": "44878", "ELEMENT_SET_NO": "999", "REV_AT_EPOCH": "1117", "BSTAR": "0.00000000000000", "MEAN_MOTION_DOT": "-0.00000066", "MEAN_MOTION_DDOT": "0.0000000000000", "SEMIMAJOR_AXIS": "6898.259", "PERIOD": "95.031", "APOAPSIS": "530.191", "PERIAPSIS": "510.058", "OBJECT_TYPE": "PAYLOAD", "RCS_SIZE": "SMALL", "COUNTRY_CODE": "ESA", "LAUNCH_DATE": "2019-12-18", "SITE": "FRGUI", "DECAY_DATE": null, "FILE": "2712003", "GP_ID": "149775507", "TLE_LINE0": "0 OPS-SAT", "TLE_LINE1": "1 44878U 19092F   20061.40751771 -.00000066  00000-0  00000+0 0  9995", "TLE_LINE2": "2 44878  97.4641 246.5356 0014593  17.3525 342.8251 15.15281952 11174"}, {"CCSDS_OMM_VERS": "3.0", "COMMENT": "GENERATED VIA SPACE-TRACK.ORG API", "CREATION_DATE": "2020-03-02T02:04:54", "ORIGINATOR": "18 SPCS", "OBJECT_NAME": "OPS-SAT", "OBJECT_ID": "2019-092F", "CENTER_NAME": "EARTH", "REF_FRAME": "TEME", "TIME_SYSTEM": "UTC", "MEAN_ELEMENT_THEORY": "SGP4", "EPOCH": "2020-03-01T12:57:00.501696", "MEAN_MOTION": "15.15282742", "ECCENTRICITY": "0.00147040", "INCLINATION": "97.4644", "RA_OF_ASC_NODE": "246.6657", "ARG_OF_PERICENTER": "16.9687", "MEAN_ANOMALY": "343.2080", "EPHEMERIS_TYPE": "0", "CLASSIFICATION_TYPE": "U", "NORAD_CAT_ID": "44878", "ELEMENT_SET_NO": "999", "REV_AT_EPOCH": "1119", "BSTAR": "0.00000000000000", "MEAN_MOTION_DOT": "-0.00000066", "MEAN_MOTION_DDOT": "0.0000000000000", "SEMIMAJOR_AXIS": "6898.257", "PERIOD": "95.031", "APOAPSIS": "530.265", "PERIAPSIS": "509.979", "OBJECT_TYPE": "PAYLOAD", "RCS_SIZE": "SMALL", "COUNTRY_CODE": "ESA", "LAUNCH_DATE": "2019-12-18", "SITE": "FRGUI", "DECAY_DATE": null, "FILE": "2712328", "GP_ID": "149822529", "TLE_LINE0": "0 OPS-SAT", "TLE_LINE1": "1 44878U 19092F   20061.53958914 -.00000066 +00000-0 +00000-0 0  9998", "TLE_LINE2": "2 44878 097.4644 246.6657 0014704 016.9687 343.2080 15.15282742011195"}, {"CCSDS_OMM_VERS": "3.0", "COMMENT": "GENERATED VIA SPACE-TRACK.ORG API", "CREATION_DATE": "2020-03-02T17:14:47", "ORIGINATOR": "18 SPCS", "OBJECT_NAME": "OPS-SAT", "OBJECT_ID": "2019-092F", "CENTER_NAME": "EARTH", "REF_FRAME": "TEME", "TIME_SYSTEM": "UTC", "MEAN_ELEMENT_THEORY": "SGP4", "EPOCH": "2020-03-02T09:33:12.195648", "MEAN_MOTION": "15.15282942", "ECCENTRICITY": "0.00146580", "INCLINATION": "97.4642", "RA_OF_ASC_NODE": "247.5086", "ARG_OF_PERICENTER": "14.0615", "MEAN_ANOMALY": "346.1040", "EPHEMERIS_TYPE": "0", "CLASSIFICATION_TYPE": "U", "NORAD_CAT_ID": "44878", "ELEMENT_SET_NO": "999", "REV_AT_EPOCH": "1132", "BSTAR": "0.00000000000000", "MEAN_MOTION_DOT": "-0.00000066", "MEAN_MOTION_DDOT": "0.0000000000000", "SEMIMAJOR_AXIS": "6898.256", "PERIOD": "95.031", "APOAPSIS": "530.233", "PERIAPSIS": "510.010", "OBJECT_TYPE": "PAYLOAD", "RCS_SIZE": "SMALL", "COUNTRY_CODE": "ESA", "LAUNCH_DATE": "2019-12-18", "SITE": "FRGUI", "DECAY_DATE": null, "FILE": "2712687", "GP_ID": "149870494", "TLE_LINE0": "0 OPS-SAT", "TLE_LINE1": "1 44878U 19092F   20062.39805782 -.00000066 +00000-0 +00000-0 0  9997", "TLE_LINE2": "2 44878 097.4642 247.5086 0014658 014.0615 346.1040 15.15282942011322"}, {"CCSDS_OMM_VERS": "3.0", "COMMENT": "GENERATED VIA SPACE-TRACK.ORG API", "CREATION_DATE": "2020-03-02T22:26:16", "ORIGINATOR": "18 SPCS", "OBJECT_NAME": "OPS-SAT", "OBJECT_ID": "2019-092F", "CENTER_NAME": "EARTH", "REF_FRAME": "TEME", "TIME_SYSTEM": "UTC", "MEAN_ELEMENT_THEORY": "SGP4", "EPOCH": "2020-03-02T14:18:28.729440", "MEAN_MOTION": "15.15283311", "ECCENTRICITY": "0.00144770", "INCLINATION": "97.4645", "RA_OF_ASC_NODE": "247.7035", "ARG_OF_PERICENTER": "13.5070", "MEAN_ANOMALY": "346.6603", "EPHEMERIS_TYPE": "0", "CLASSIFICATION_TYPE": "U", "NORAD_CAT_ID": "44878", "ELEMENT_SET_NO": "999", "REV_AT_EPOCH": "1135", "BSTAR": "0.00000000000000", "MEAN_MOTION_DOT": "-0.00000066", "MEAN_MOTION_DDOT": "0.0000000000000", "SEMIMAJOR_AXIS": "6898.255", "PERIOD": "95.031", "APOAPSIS": "530.107", "PERIAPSIS": "510.133", "OBJECT_TYPE": "PAYLOAD", "RCS_SIZE": "SMALL", "COUNTRY_CODE": "ESA", "LAUNCH_DATE": "2019-12-18", "SITE": "FRGUI", "DECAY_DATE": null, "FILE": "2712718", "GP_ID": "149890876", "TLE_LINE0": "0 OPS-SAT", "TLE_LINE1": "1 44878U 19092F   20062.59616585 -.00000066  00000-0  00000+0 0  9999", "TLE_LINE2": "2 44878  97.4645 247.7035 0014477  13.5070 346.6603 15.15283311 11353"}, {"CCSDS_OMM_VERS": "3.0", "COMMENT": "GENERATED VIA SPACE-TRACK.ORG API", "CREATION_DATE": "2020-03-03T20:03:21", "ORIGINATOR": "18 SPCS", "OBJECT_NAME": "OPS-SAT", "OBJECT_ID": "2019-092F", "CENTER_NAME": "EARTH", "REF_FRAME": "TEME", "TIME_SYSTEM": "UTC", "MEAN_ELEMENT_THEORY": "SGP4", "EPOCH": "2020-03-03T04:34:18.274656", "MEAN_MOTION": "15.15283698", "ECCENTRICITY": "0.00144810", "INCLINATION": "97.4639", "RA_OF_ASC_NODE": "248.2869", "ARG_OF_PERICENTER": "11.6748", "MEAN_ANOMALY": "348.4831", "EPHEMERIS_TYPE": "0", "CLASSIFICATION_TYPE": "U", "NORAD_CAT_ID": "44878", "ELEMENT_SET_NO": "999", "REV_AT_EPOCH": "1144", "BSTAR": "0.00000000000000", "MEAN_MOTION_DOT": "-0.00000066", "MEAN_MOTION_DDOT": "0.0000000000000", "SEMIMAJOR_AXIS": "6898.254", "PERIOD": "95.031", "APOAPSIS": "530.108", "PERIAPSIS": "510.130", "OBJECT_TYPE": "PAYLOAD", "RCS_SIZE": "SMALL", "COUNTRY_CODE": "ESA", "LAUNCH_DATE": "2019-12-18", "SITE": "FRGUI", "DECAY_DATE": null, "FILE": "2713018", "GP_ID": "149937229", "TLE_LINE0": "0 OPS-SAT", "TLE_LINE1": "1 44878U 19092F   20063.19048929 -.00000066 +00000-0 +00000-0 0  9998", "TLE_LINE2": "2 44878 097.4639 248.2869 0014481 011.6748 348.4831 15.15283698011444"}, {"CCSDS_OMM_VERS": "3.0", "COMMENT": "GENERATED VIA SPACE-TRACK.ORG API", "CREATION_DATE": "2020-03-04T01:50:03", "ORIGINATOR": "18 SPCS", "OBJECT_NAME": "OPS-SAT", "OBJECT_ID": "2019-092F", "CENTER_NAME": "EARTH", "REF_FRAME": "TEME", "TIME_SYSTEM": "UTC", "MEAN_ELEMENT_THEORY": "SGP4", "EPOCH": "2020-03-03T14:04:51.356928", "MEAN_MOTION": "15.15284634", "ECCENTRICITY": "0.00141750", "INCLINATION": "97.4641", "RA_OF_ASC_NODE": "248.6766", "ARG_OF_PERICENTER": "9.3521", "MEAN_ANOMALY": "350.8124", "EPHEMERIS_TYPE": "0", "CLASSIFICATION_TYPE": "U", "NORAD_CAT_ID": "44878", "ELEMENT_SET_NO": "999", "REV_AT_EPOCH": "1150", "BSTAR": "0.00000000000000", "MEAN_MOTION_DOT": "-0.00000066", "MEAN_MOTION_DDOT": "0.0000000000000", "SEMIMAJOR_AXIS": "6898.251", "PERIOD": "95.031", "APOAPSIS": "529.894", "PERIAPSIS": "510.338", "OBJECT_TYPE": "PAYLOAD", "RCS_SIZE": "SMALL", "COUNTRY_CODE": "ESA", "LAUNCH_DATE": "2019-12-18", "SITE": "FRGUI", "DECAY_DATE": null, "FILE": "2713183", "GP_ID": "149960885", "TLE_LINE0": "0 OPS-SAT", "TLE_LINE1": "1 44878U 19092F   20063.58670552 -.00000066 +00000-0 +00000-0 0  9994", "TLE_LINE2": "2 44878 097.4641 248.6766 0014175 009.3521 350.8124 15.15284634011500"}, {"CCSDS_OMM_VERS": "3.0", "COMMENT": "GENERATED VIA SPACE-TRACK.ORG API", "CREATION_DATE": "2020-03-04T18:25:02", "ORIGINATOR": "18 SPCS", "OBJECT_NAME": "OPS-SAT", "OBJECT_ID": "2019-092F", "CENTER_NAME": "EARTH", "REF_FRAME": "TEME", "TIME_SYSTEM": "UTC", "MEAN_ELEMENT_THEORY": "SGP4", "EPOCH": "2020-03-04T10:41:02.757120", "MEAN_MOTION": "15.15286406", "ECCENTRICITY": "0.00133930", "INCLINATION": "97.4645", "RA_OF_ASC_NODE": "249.5214", "ARG_OF_PERICENTER": "7.2566", "MEAN_ANOMALY": "352.9124", "EPHEMERIS_TYPE": "0", "CLASSIFICATION_TYPE": "U", "NORAD_CAT_ID": "44878", "ELEMENT_SET_NO": "999", "REV_AT_EPOCH": "1163", "BSTAR": "0.00000000000000", "MEAN_MOTION_DOT": "-0.00000066", "MEAN_MOTION_DDOT": "0.0000000000000", "SEMIMAJOR_AXIS": "6898.246", "PERIOD": "95.031", "APOAPSIS": "529.350", "PERIAPSIS": "510.872", "OBJECT_TYPE": "PAYLOAD", "RCS_SIZE": "SMALL", "COUNTRY_CODE": "ESA", "LAUNCH_DATE": "2019-12-18", "SITE": "FRGUI", "DECAY_DATE": null, "FILE": "2713454", "GP_ID": "149987070", "TLE_LINE0": "0 OPS-SAT", "TLE_LINE1": "1 44878U 19092F   20064.44517080 -.00000066 +00000-0 +00000-0 0  9996", "TLE_LINE2": "2 44878 097.4645 249.5214 0013393 007.2566 352.9124 15.15286406011635"}, {"CCSDS_OMM_VERS": "3.0", "COMMENT": "GENERATED VIA SPACE-TRACK.ORG API", "CREATION_DATE": "2020-03-05T01:17:29", "ORIGINATOR": "18 SPCS", "OBJECT_NAME": "OPS-SAT", "OBJECT_ID": "2019-092F", "CENTER_NAME": "EARTH", "REF_FRAME": "TEME", "TIME_SYSTEM": "UTC", "MEAN_ELEMENT_THEORY": "SGP4", "EPOCH": "2020-03-04T15:26:18.858048", "MEAN_MOTION": "15.15286948", "ECCENTRICITY": "0.00133840", "INCLINATION": "97.4649", "RA_OF_ASC_NODE": "249.7158", "ARG_OF_PERICENTER": "6.3126", "MEAN_ANOMALY": "353.8325", "EPHEMERIS_TYPE": "0", "CLASSIFICATION_TYPE": "U", "NORAD_CAT_ID": "44878", "ELEMENT_SET_NO": "999", "REV_AT_EPOCH": "1166", "BSTAR": "0.00000000000000", "MEAN_MOTION_DOT": "-0.00000066", "MEAN_MOTION_DDOT": "0.0000000000000", "SEMIMAJOR_AXIS": "6898.244", "PERIOD": "95.031", "APOAPSIS": "529.342", "PERIAPSIS": "510.876", "OBJECT_TYPE": "PAYLOAD", "RCS_SIZE": "SMALL", "COUNTRY_CODE": "ESA", "LAUNCH_DATE": "2019-12-18", "SITE": "FRGUI", "DECAY_DATE": null, "FILE": "2713584", "GP_ID": "150029342", "TLE_LINE0": "0 OPS-SAT", "TLE_LINE1": "1 44878U 19092F   20064.64327382 -.00000066 +00000-0 +00000-0 0  9992", "TLE_LINE2": "2 44878 097.4649 249.7158 0013384 006.3126 353.8325 15.15286948011667"}]